O3B FM5                 
1 39188U 13031A   22295.80748865 -.00000015  00000+0  00000+0 0  9998
2 39188   0.0650  15.4951 0002693 200.5171 143.9769  5.00115336170330
O3B FM4                 
1 39189U 13031B   22296.06336946 -.00000015  00000+0  00000+0 0  9991
2 39189   0.0487 352.4461 0002636 223.3586 144.1850  5.00115847170453
O3B FM2                 
1 39190U 13031C   22295.75501823 -.00000015  00000+0  00000+0 0  9996
2 39190   0.0479 346.4100 0002653 228.1594 145.4207  5.00115142170403
O3B PFM                 
1 39191U 13031D   22296.18109040 -.00000014  00000+0  00000+0 0  9999
2 39191   0.0577  10.5040 0002684 201.7924 147.6947  5.00115751170437
O3B FM3                 
1 40079U 14038A   22295.83610205 -.00000015  00000+0  00000+0 0  9996
2 40079   0.0528 359.8592 0004765 192.7284 167.4078  5.00115319146338
O3B FM7                 
1 40080U 14038B   22295.38238962 -.00000016  00000+0  00000+0 0  9995
2 40080   0.0543 355.3840 0002122 260.6978 103.9017  5.00115509151159
O3B FM6                 
1 40081U 14038C   22295.40877343 -.00000016  00000+0  00000+0 0  9991
2 40081   0.0518 359.6510 0002744 212.6321 147.7071  5.00115311151104
O3B FM8                 
1 40082U 14038D   22296.06234942 -.00000015  00000+0  00000+0 0  9996
2 40082   0.0493 357.1421 0002647 212.6634 150.1868  5.00115672151438
O3B FM10                
1 40348U 14083A   22295.48876995 -.00000016  00000+0  00000+0 0  9997
2 40348   0.0527   9.5452 0002662 202.2278 148.2181  5.00115176143176
O3B FM11                
1 40349U 14083B   22295.70209952 -.00000015  00000+0  00000+0 0  9995
2 40349   0.0570   7.3798 0002682 219.6368 132.9682  5.00115412143201
O3B FM12                
1 40350U 14083C   22295.32953539 -.00000016  00000+0  00000+0 0  9993
2 40350   0.0561   6.9909 0002814 207.2055 145.7925  5.00115266143192
O3B FM9                 
1 40351U 14083D   22295.55625693 -.00000016  00000+0  00000+0 0  9996
2 40351   0.0582   7.1910 0002640 205.7171 147.0826  5.00116163143350
DIAMOND RED             
1 42783U 17036U   22295.85543488  .00013155  00000+0  45896-3 0  9995
2 42783  97.1869 332.3433 0008562 228.9122 131.1381 15.29699775296403
DIAMOND GREEN           
1 42785U 17036W   22295.85591922  .00015196  00000+0  52907-3 0  9991
2 42785  97.1873 332.4085 0008360 230.0426 130.0081 15.29735094296478
DIAMOND BLUE            
1 42786U 17036X   22296.05135014  .00015245  00000+0  53076-3 0  9994
2 42786  97.1874 332.5895 0008410 230.3184 129.7316 15.29735741296420
LEO VANTAGE 1           
1 43113U 18004C   22295.86110648  .00004375  00000+0  35094-3 0  9991
2 43113  99.2439  29.5145 0399861 168.3623 192.7160 14.54406641242752
O3B FM15                
1 43231U 18024A   22295.62220083 -.00000016  00000+0  00000+0 0  9997
2 43231   0.0498  11.7851 0002987 201.9307 146.2724  5.00116045 84311
O3B FM16                
1 43232U 18024B   22295.27581912 -.00000016  00000+0  00000+0 0  9990
2 43232   0.0471  15.5720 0002968 198.1074 146.3087  5.00115899 84215
O3B FM14                
1 43233U 18024C   22295.91516821 -.00000015  00000+0  00000+0 0  9998
2 43233   0.0458  16.5752 0002839 200.5915 142.8209  5.00115342 84485
O3B FM13                
1 43234U 18024D   22293.76989766 -.00000020  00000+0  00000+0 0  9998
2 43234   0.0597  21.5340 0003790 194.3660 144.0808  5.00114977 84261
O3B FM20                
1 44112U 19020A   22295.34219641 -.00000016  00000+0  00000+0 0  9990
2 44112   0.0522   9.0206 0003198 210.2397 140.7236  5.00115472 64845
O3B FM19                
1 44113U 19020B   22295.76880478 -.00000015  00000+0  00000+0 0  9998
2 44113   0.0739  16.9789 0001888 222.8435 120.1662  5.00115114 64720
O3B FM17                
1 44114U 19020C   22294.64993484 -.00000018  00000+0  00000+0 0  9990
2 44114   0.0338 359.8850 0003108 212.9156 147.1867  5.00115626 64769
O3B FM18                
1 44115U 19020D   22295.79578390 -.00000015  00000+0  00000+0 0  9990
2 44115   0.0526   9.0849 0002909 202.6656 148.2393  5.00115788 64934
SALSAT                  
1 46495U 20068K   22295.83846351  .00003072  00000+0  21973-3 0  9998
2 46495  97.7410 237.2800 0015493 199.2700 160.7942 15.05123674113345
